INTELSAT 902 (IS-902)   
1 26900U 01039A   26158.19304323 -.00000270  00000+0  00000+0 0  9995
2 26900   6.0933  71.9037 0004296   1.6561 201.4206  1.00270646 90591
INTELSAT 904 (IS-904)   
1 27380U 02007A   26157.62641043 -.00000213  00000+0  00000+0 0  9991
2 27380   6.8931  69.3106 0007136   0.5431  19.1983  1.00270083 51664
DIRECTV 5 (TEMPO 1)     
1 27426U 02023A   26158.62417242 -.00000043  00000+0  00000+0 0  9994
2 27426   4.8525  75.4290 0003412  10.4415 284.7555  1.00271678 88025
INTELSAT 905 (IS-905)   
1 27438U 02027A   26158.54554470  .00000107  00000+0  00000+0 0  9997
2 27438   6.7285  69.9157 0004099  15.2283 229.9944  1.00273058 51263
GALAXY 3C (G-3C)        
1 27445U 02030A   26158.61176500 -.00000138  00000+0  00000+0 0  9996
2 27445   3.7053  78.1045 0001854  30.6428 272.6531  1.00271611 46395
INTELSAT 906 (IS-906)   
1 27513U 02041A   26158.78610617  .00000028  00000+0  00000+0 0  9991
2 27513   5.7800  73.0355 0004684 357.5851 172.6949  1.00271075 86936
GALAXY 13 (HORIZONS-1)  
1 27954U 03044A   26158.67237336  .00000147  00000+0  00000+0 0  9997
2 27954   1.3957  83.9733 0002086 347.6241 276.5139  1.00272947 46476
INTELSAT 10-02          
1 28358U 04022A   26158.77313043  .00000005  00000+0  00000+0 0  9997
2 28358   0.0052 326.5276 0000174 254.1379 312.8297  1.00279076 80461
DIRECTV 8               
1 28659U 05019A   26158.60717163  .00000016  00000+0  00000+0 0  9993
2 28659   0.0176  10.0104 0002924  72.3447 273.1915  1.00271292 76977
GALAXY 28 (G-28)        
1 28702U 05022A   26158.76801706 -.00000185  00000+0  00000+0 0  9998
2 28702   3.2754  79.0455 0002818 352.8963  73.6032  1.00273000 51883
GALAXY 16 (G-16)        
1 29236U 06023A   26158.68242674 -.00000112  00000+0  00000+0 0  9997
2 29236   0.0019 244.0292 0002728 192.2785 326.4528  1.00271915 72870
DIRECTV 9S              
1 29494U 06043A   26158.68199339 -.00000099  00000+0  00000+0 0  9998
2 29494   2.3953  81.0171 0005088   6.2111 313.1889  1.00271622 51282
GALAXY 17 (G-17)        
1 31307U 07016B   26158.54262588 -.00000192  00000+0  00000+0 0  9991
2 31307   2.9469  80.0223 0004896  14.6794 271.6000  1.00272039 69701
INTELSAT 11 (IS-11)     
1 32253U 07044B   26158.73520604 -.00000213  00000+0  00000+0 0  9994
2 32253   3.5400  78.7841 0001837  81.2968 168.0781  0.99053762 68351
HORIZONS-2              
1 32388U 07063B   26158.54487921 -.00000239  00000+0  00000+0 0  9995
2 32388   2.5764  80.7444 0004057 354.6268 302.9651  1.00272349 67712
DIRECTV 11              
1 32729U 08013A   26158.61107167 -.00000111  00000+0  00000+0 0  9998
2 32729   0.0327 183.0093 0000485 231.4353 322.3797  1.00273719 45494
GALAXY 18 (G-18)        
1 32951U 08024A   26158.74898611  .00000040  00000+0  00000+0 0  9992
2 32951   0.0250  71.7387 0003197  15.2757 315.7680  1.00272856 45751
INTELSAT 25 (IS-25)     
1 33153U 08034A   26158.73451272 -.00000229  00000+0  00000+0 0  9995
2 33153   2.6831  80.4431 0001891  31.7240 212.1411  0.99020653 65594
GALAXY 19 (G-19)        
1 33376U 08045A   26158.61159167 -.00000125  00000+0  00000+0 0  9994
2 33376   0.0219  78.0304 0002797 356.6886 304.4796  1.00272044 64806
FM-5                    
1 35493U 09034A   26158.61367168 -.00000186  00000+0  00000+0 0  9994
2 35493   0.0184 288.8152 0000598  25.4069  76.5681  1.00273109 46546
INTELSAT 14 (IS-14)     
1 36097U 09064A   26158.76446373 -.00000258  00000+0  00000+0 0  9990
2 36097   0.0157 330.8130 0002820 121.6505  33.9204  1.00271224 60512
INTELSAT 15 (IS-15)     
1 36106U 09067A   26158.79017954 -.00000170  00000+0  00000+0 0  9999
2 36106   0.0031 343.4683 0002299  96.3018 186.0389  1.00271629 41134
DIRECTV 12              
1 36131U 09075A   26158.61046499 -.00000089  00000+0  00000+0 0  9992
2 36131   0.0273 150.8162 0000259 248.0677 334.1802  1.00270450 46450
INTELSAT 16 (IS-16)     
1 36397U 10006A   26158.54435921 -.00000230  00000+0  00000+0 0  9994
2 36397   0.0231  49.9771 0002192  40.6889 285.0667  1.00270898 59555
XM-5                    
1 37185U 10053A   26158.60795163 -.00000009  00000+0  00000+0 0  9990
2 37185   0.0670 273.0946 0002929 284.9989 161.5916  1.00272663 57380
INTELSAT 17 (IS-17)     
1 37238U 10065B   26158.77243737  .00000013  00000+0  00000+0 0  9999
2 37238   0.0041 133.4900 0002559 315.5108 151.2436  1.00272301 53156
INTELSAT 28 (IS-28)     
1 37392U 11016A   26158.76706374 -.00000210  00000+0  00000+0 0  9997
2 37392   1.7809  82.7395 0003911 354.0367  63.8324  1.00268922 53191
INTELSAT 18 (IS-18)     
1 37834U 11056A   26158.66639331  .00000068  00000+0  00000+0 0  9999
2 37834   0.0191 319.0517 0002156 131.6868 225.2343  1.00272184 53713
INTELSAT 22 (IS-22)     
1 38098U 12011A   26158.78766618 -.00000044  00000+0  00000+0 0  9991
2 38098   0.0215  62.3604 0001609   4.5520 184.9332  1.00273334  7090
INTELSAT 19 (IS-19)     
1 38356U 12030A   26158.59237111 -.00000042  00000+0  00000+0 0  9997
2 38356   0.0106  32.4422 0003093  51.8353 190.9735  1.00271459 50357
INTELSAT 20 (IS-20)     
1 38740U 12043A   26158.71561252 -.00000010  00000+0  00000+0 0  9993
2 38740   0.0097  87.3258 0001779  87.5620  47.3462  1.00272191 50650
